     2.100          NAVIGATION                              RINEX VERSION / TYPE
fic2rin                                 10/26/2012 00:22:31 PGM / RUN BY / DATE
                                                            END OF HEADER
30 12 10 25 13 59 44.0 -.348981004208D-03  .171667124960D-10  .000000000000D+00
     .280000000000D+02  .496875000000D+02  .462554981557D-08  .244994238420D+01
     .243633985519D-05  .110496371053D-01  .777840614319D-05  .515372846031D+04
     .395984000000D+06  .949949026108D-07  .223965580860D+00 -.124797224998D-06
     .961873477914D+00  .228437500000D+03  .161451065967D+01 -.796568894578D-08
     .410374236591D-09  .100000000000D+01  .171100000000D+04  .000000000000D+00
     .485000000000D+01  .000000000000D+00 -.465661287308D-08  .280000000000D+02
     .388806000000D+06  .400000000000D+01
 1 12 10 25 14  0  0.0  .279371626675D-03  .170530256582D-11  .000000000000D+00
     .570000000000D+02 -.160312500000D+02  .443339895458D-08  .170431095848D+00
    -.830739736557D-06  .133168278262D-02  .110790133476D-04  .515364147568D+04
     .396000000000D+06  .745058059692D-08  .241766307337D+01  .558793544769D-08
     .960223925135D+00  .161843750000D+03  .475405196272D+00 -.795033116320D-08
    -.252867675811D-09  .100000000000D+01  .171100000000D+04  .000000000000D+00
     .240000000000D+01  .000000000000D+00  .838190317154D-08  .570000000000D+02
     .388806000000D+06  .400000000000D+01
 2 12 10 25 14  0  0.0  .406987033784D-03  .113686837722D-11  .000000000000D+00
     .820000000000D+02 -.665625000000D+01  .493734851753D-08  .114936819946D+01
    -.216066837311D-06  .115378982155D-01  .113788992167D-04  .515378334808D+04
     .396000000000D+06 -.726431608200D-07  .240068977409D+01  .162050127983D-06
     .938732991460D+00  .150718750000D+03 -.272919115066D+01 -.827605901679D-08
    -.382515933324D-09  .100000000000D+01  .171100000000D+04  .000000000000D+00
     .240000000000D+01  .000000000000D+00 -.176951289177D-07  .820000000000D+02
     .388806000000D+06  .400000000000D+01
 3 12 10 25 14  0  0.0  .119352247566D-03  .511590769747D-11  .000000000000D+00
     .330000000000D+02 -.373437500000D+02  .577345477328D-08  .132534308188D+01
    -.213086605072D-05  .158712058328D-01  .461004674435D-05  .515374429131D+04
     .396000000000D+06 -.309199094772D-06  .123391967986D+01 -.143423676491D-06
     .932130982608D+00  .280875000000D+03  .124914932854D+01 -.892180020022D-08
    -.167864135072D-09  .100000000000D+01  .171100000000D+04  .000000000000D+00
     .240000000000D+01  .000000000000D+00 -.465661287308D-08  .330000000000D+02
     .388806000000D+06  .400000000000D+01
 5 12 10 25 14  0  0.0 -.361999962479D-03 -.272848410532D-11  .000000000000D+00
     .530000000000D+02  .766250000000D+02  .487913180685D-08 -.299908240259D+01
     .395998358727D-05  .300065719057D-02  .669248402119D-05  .515377449989D+04
     .396000000000D+06  .353902578354D-07 -.281883926648D+01 -.745058059692D-08
     .950361061644D+00  .246937500000D+03  .244535053158D+00 -.832963267692D-08
     .283583240952D-09  .100000000000D+01  .171100000000D+04  .000000000000D+00
     .240000000000D+01  .000000000000D+00 -.102445483208D-07  .530000000000D+02
     .388806000000D+06  .400000000000D+01
 6 12 10 25 14  0  0.0  .475627370179D-03 -.989075488178D-11  .000000000000D+00
     .880000000000D+02 -.433125000000D+02  .544165523821D-08 -.307288302822D+01
    -.213086605072D-05  .734772288706D-02  .451318919659D-05  .515368212891D+04
     .396000000000D+06 -.596046447754D-07  .131177097205D+01  .838190317154D-07
     .938877104983D+00  .280406250000D+03 -.424933327333D+00 -.851035449042D-08
    -.186793494985D-09  .100000000000D+01  .171100000000D+04  .000000000000D+00
     .240000000000D+01  .000000000000D+00 -.512227416039D-08  .880000000000D+02
     .388806000000D+06  .400000000000D+01
 7 12 10 25 14  0  0.0  .137620605528D-03  .454747350886D-11  .000000000000D+00
     .104000000000D+03 -.246250000000D+02  .396695095372D-08 -.218905929465D+00
    -.120699405670D-05  .605314772110D-02  .103283673525D-04  .515372279930D+04
     .396000000000D+06  .838190317154D-07 -.704714309242D+00  .335276126862D-07
     .975924987467D+00  .188625000000D+03 -.295062055968D+01 -.786247036059D-08
     .107147320259D-10  .100000000000D+01  .171100000000D+04  .000000000000D+00
     .340000000000D+01  .000000000000D+00 -.111758708954D-07  .104000000000D+03
     .388806000000D+06  .400000000000D+01
 8 12 10 25 14  0  0.0  .254437327385D-05  .113686837722D-12  .000000000000D+00
     .210000000000D+02 -.107500000000D+02  .348585948575D-08 -.856173554905D+00
    -.623986124992D-06  .127725324128D-01  .105705112219D-04  .515364097214D+04
     .396000000000D+06  .258907675743D-06 -.618147815721D+00 -.968575477600D-07
     .998389948092D+00  .191593750000D+03 -.291105098240D+01 -.756638659894D-08
     .107861635727D-09  .100000000000D+01  .171100000000D+04  .000000000000D+00
     .240000000000D+01  .000000000000D+00 -.419095158577D-08  .210000000000D+02
     .388806000000D+06  .400000000000D+01
 9 12 10 25 14  0  0.0  .194946769625D-03  .272848410532D-11  .000000000000D+00
     .810000000000D+02 -.121562500000D+02  .381908765176D-08 -.798904266369D+00
    -.702217221260D-06  .172312202631D-01  .118073076010D-04  .515366802406D+04
     .396000000000D+06 -.210478901863D-06 -.729357989374D+00  .987201929092D-07
     .984590295978D+00  .172437500000D+03  .164748310694D+01 -.799854745732D-08
     .635740766869D-10  .100000000000D+01  .171100000000D+04  .000000000000D+00
     .240000000000D+01  .000000000000D+00 -.558793544769D-08  .810000000000D+02
     .388806000000D+06  .400000000000D+01
10 12 10 25 14  0  0.0 -.563389621675D-04 -.125055521494D-11  .000000000000D+00
     .500000000000D+01  .748437500000D+02  .488520348833D-08 -.271781099242D+01
     .382773578167D-05  .118301926414D-01  .641122460365D-05  .515373159027D+04
     .396000000000D+06  .670552253723D-07 -.279816124859D+01 -.108033418655D-06
     .945211579765D+00  .247875000000D+03  .767430776172D+00 -.820319883902D-08
     .321084803042D-09  .100000000000D+01  .171100000000D+04  .000000000000D+00
     .240000000000D+01  .000000000000D+00 -.279396772385D-08  .261000000000D+03
     .388806000000D+06  .400000000000D+01
11 12 10 25 14  0  0.0 -.316413585097D-03 -.386535248253D-11  .000000000000D+00
     .800000000000D+02 -.470937500000D+02  .634490714799D-08 -.547019346009D-01
    -.229105353355D-05  .136788379168D-01  .938959419727D-05  .515368022537D+04
     .396000000000D+06 -.108033418655D-06  .213660393847D+01  .175088644028D-06
     .888265237710D+00  .159218750000D+03  .111070561968D+01 -.911216527254D-08
    -.350014579512D-09  .100000000000D+01  .171100000000D+04  .000000000000D+00
     .240000000000D+01  .000000000000D+00 -.116415321827D-07  .800000000000D+02
     .388806000000D+06  .400000000000D+01
12 12 10 25 14  0  0.0  .980668701231D-04  .204636307899D-11  .000000000000D+00
     .520000000000D+02  .419687500000D+02  .439232581514D-08 -.551533059783D+00
     .225007534027D-05  .399301224388D-02  .692158937454D-05  .515368778992D+04
     .396000000000D+06  .838190317154D-07  .351992189476D+00 -.298023223877D-07
     .981816878328D+00  .259062500000D+03  .146102671637D+00 -.808819404860D-08
     .485734518507D-09  .100000000000D+01  .171100000000D+04  .000000000000D+00
     .240000000000D+01  .000000000000D+00 -.121071934700D-07  .520000000000D+02
     .388806000000D+06  .400000000000D+01
13 12 10 25 14  0  0.0  .171927269548D-03 -.272848410532D-11  .000000000000D+00
     .850000000000D+02 -.434062500000D+02  .409231331842D-08  .210683125146D+01
    -.219233334064D-05  .477100582793D-02  .530108809471D-05  .515359936333D+04
     .396000000000D+06  .279396772385D-07 -.167392378004D+01  .502914190292D-07
     .983735916710D+00  .288281250000D+03  .207967872095D+01 -.795354558281D-08
    -.267868300647D-09  .100000000000D+01  .171100000000D+04  .000000000000D+00
     .240000000000D+01  .000000000000D+00 -.111758708954D-07  .850000000000D+02
     .388806000000D+06  .400000000000D+01
14 12 10 25 14  0  0.0  .215523876250D-03  .682121026330D-12  .000000000000D+00
     .320000000000D+02 -.476875000000D+02  .426803492364D-08  .233574403506D+01
    -.246055424213D-05  .685348908883D-02  .510551035404D-05  .515365663338D+04
     .396000000000D+06  .689178705215D-07 -.170169345132D+01 -.124797224998D-06
     .976509443721D+00  .287437500000D+03 -.203111514526D+01 -.806890753096D-08
    -.263582407837D-09  .100000000000D+01  .171100000000D+04  .000000000000D+00
     .240000000000D+01  .000000000000D+00 -.884756445885D-08  .320000000000D+02
     .388806000000D+06  .400000000000D+01
15 12 10 25 14  0  0.0 -.980836339295D-04 -.909494701773D-12  .000000000000D+00
     .730000000000D+02 -.324687500000D+02  .515950062820D-08  .192949720989D+01
    -.164471566677D-05  .482375058345D-02  .442937016487D-05  .515365164185D+04
     .396000000000D+06 -.558793544769D-08 -.179455332918D+01  .102445483208D-06
     .943276913030D+00  .285125000000D+03  .433097672714D-01 -.858785771874D-08
    -.290012080167D-09  .100000000000D+01  .171100000000D+04  .000000000000D+00
     .240000000000D+01  .000000000000D+00 -.102445483208D-07  .730000000000D+02
     .388806000000D+06  .400000000000D+01
16 12 10 25 14  0  0.0 -.248526688665D-03 -.682121026330D-12  .000000000000D+00
     .720000000000D+02  .453750000000D+02  .428732144129D-08 -.278596850519D+01
     .240094959736D-05  .654253794346D-02  .732950866222D-05  .515376678276D+04
     .396000000000D+06 -.158324837685D-06  .370237490175D+00 -.279396772385D-07
     .982579915917D+00  .251968750000D+03  .278241401071D-01 -.787425656582D-08
     .458590530708D-09  .100000000000D+01  .171100000000D+04  .000000000000D+00
     .240000000000D+01  .000000000000D+00 -.977888703346D-08  .720000000000D+02
     .388806000000D+06  .400000000000D+01
